{
  "type": "FeatureCollection",
  "features": [
    {
      "type": "Feature",
      "properties": { "name": "Whitehaven Beach", "state": "QLD" },
      "geometry": { "type": "Point", "coordinates": [149.034912, -20.282677] }
    },
    {
      "type": "Feature",
      "properties": { "name": "Bondi Beach", "state": "NSW" },
      "geometry": { "type": "Point", "coordinates": [151.274292, -33.890842] }
    },
    {
      "type": "Feature",
      "properties": { "name": "Bronte Beach", "state": "NSW" },
      "geometry": { "type": "Point", "coordinates": [151.2683, -33.9036] }
    },
    {
      "type": "Feature",
      "properties": { "name": "Bay of Fires", "state": "TAS" },
      "geometry": { "type": "Point", "coordinates": [148.2861, -41.1750] }
    },
    {
      "type": "Feature",
      "properties": { "name": "Surfers Paradise Beach", "state": "QLD" },
      "geometry": { "type": "Point", "coordinates": [153.4294, -28.0027] }
    },
    {
      "type": "Feature",
      "properties": { "name": "Cable Beach", "state": "WA" },
      "geometry": { "type": "Point", "coordinates": [122.2089, -17.7766] }
    },
    {
      "type": "Feature",
      "properties": { "name": "Bells Beach", "state": "VIC" },
      "geometry": { "type": "Point", "coordinates": [144.2833, -38.3700] }
    },
    {
      "type": "Feature",
      "properties": { "name": "Cottesloe Beach", "state": "WA" },
      "geometry": { "type": "Point", "coordinates": [115.7522, -31.9942] }
    },
    {
      "type": "Feature",
      "properties": { "name": "Hyams Beach", "state": "NSW" },
      "geometry": { "type": "Point", "coordinates": [150.7000, -35.1050] }
    },
    {
      "type": "Feature",
      "properties": { "name": "Manly Beach", "state": "NSW" },
      "geometry": { "type": "Point", "coordinates": [151.2870, -33.7972] }
    },
    {
      "type": "Feature",
      "properties": { "name": "Noosa Main Beach", "state": "QLD" },
      "geometry": { "type": "Point", "coordinates": [153.0896, -26.3846] }
    },
    {
      "type": "Feature",
      "properties": { "name": "Scarborough Beach", "state": "WA" },
      "geometry": { "type": "Point", "coordinates": [115.7587, -31.8978] }
    },
    {
      "type": "Feature",
      "properties": { "name": "Glenelg Beach", "state": "SA" },
      "geometry": { "type": "Point", "coordinates": [138.5125, -34.9797] }
    },
    {
      "type": "Feature",
      "properties": { "name": "Ninety Mile Beach", "state": "VIC" },
      "geometry": { "type": "Point", "coordinates": [147.0800, -38.0833] }
    }
  ]
}
